[{"OBJECT_NAME":"STARLINK-32553","OBJECT_ID":"2024-217Q","EPOCH":"2026-03-09T22:00:01.999584","MEAN_MOTION":15.30196298,"ECCENTRICITY":0.00012,"INCLINATION":53.1589,"RA_OF_ASC_NODE":193.0983,"ARG_OF_PERICENTER":84.5668,"MEAN_ANOMALY":235.3429,"EPHEMERIS_TYPE":0,"CLASSIFICATION_TYPE":"U","NORAD_CAT_ID":62071,"ELEMENT_SET_NO":999,"REV_AT_EPOCH":580,"BSTAR":2.332763e-5,"MEAN_MOTION_DOT":3.32e-6,"MEAN_MOTION_DDOT":0},{"OBJECT_NAME":"SPACEMOBILE-005 DEB","OBJECT_ID":"2024-163K","EPOCH":"2026-03-09T07:33:15.902496","MEAN_MOTION":15.31481997,"ECCENTRICITY":0.00072885,"INCLINATION":52.9762,"RA_OF_ASC_NODE":31.7924,"ARG_OF_PERICENTER":175.8731,"MEAN_ANOMALY":184.2329,"EPHEMERIS_TYPE":0,"CLASSIFICATION_TYPE":"U","NORAD_CAT_ID":62373,"ELEMENT_SET_NO":999,"REV_AT_EPOCH":8280,"BSTAR":0.00063853778,"MEAN_MOTION_DOT":0.00019381,"MEAN_MOTION_DDOT":0}]
